[{"OBJECT_NAME":"TEVEL2-5","OBJECT_ID":"2025-052E","EPOCH":"2026-03-09T23:11:54.246048","MEAN_MOTION":15.30817434,"ECCENTRICITY":0.00047002,"INCLINATION":97.4013,"RA_OF_ASC_NODE":325.3677,"ARG_OF_PERICENTER":95.3936,"MEAN_ANOMALY":264.7842,"EPHEMERIS_TYPE":0,"CLASSIFICATION_TYPE":"U","NORAD_CAT_ID":63214,"ELEMENT_SET_NO":999,"REV_AT_EPOCH":5491,"BSTAR":0.00071764727,"MEAN_MOTION_DOT":0.00021339,"MEAN_MOTION_DDOT":0},{"OBJECT_NAME":"STARLINK-35493","OBJECT_ID":"2025-225U","EPOCH":"2026-03-09T13:00:24.135264","MEAN_MOTION":15.30183801,"ECCENTRICITY":0.00011957,"INCLINATION":53.1589,"RA_OF_ASC_NODE":166.4946,"ARG_OF_PERICENTER":80.2123,"MEAN_ANOMALY":279.9013,"EPHEMERIS_TYPE":0,"CLASSIFICATION_TYPE":"U","NORAD_CAT_ID":65928,"ELEMENT_SET_NO":999,"REV_AT_EPOCH":2438,"BSTAR":0.0013905869,"MEAN_MOTION_DOT":0.00041033,"MEAN_MOTION_DDOT":0}]
